IRIDIUM 116             
1 43072U 17083C   24025.36428853  .00000433  00000+0  14765-3 0  9992
2 43072  86.3996 327.2133 0002167  89.0059 271.1385 14.34216596318928
IRIDIUM 130             
1 43073U 17083D   24025.33258225  .00000155  00000+0  48230-4 0  9990
2 43073  86.4009 327.4172 0002029  85.6306 274.5121 14.34218412318861
IRIDIUM 151             
1 43074U 17083E   24025.37697901  .00000563  00000+0  19404-3 0  9996
2 43074  86.3999 327.2464 0002446  84.5727 275.5748 14.34220950318898
IRIDIUM 134             
1 43075U 17083F   24025.34526435  .00000270  00000+0  89232-4 0  9999
2 43075  86.4000 327.2557 0001929  85.7103 274.4313 14.34217407318857
IRIDIUM 137             
1 43076U 17083G   24025.84633366  .00000580  00000+0  19993-3 0  9997
2 43076  86.4002 327.1218 0002319  94.1969 265.9492 14.34219599318993
IRIDIUM 141             
1 43077U 17083H   24025.35160242  .00000612  00000+0  21140-3 0  9995
2 43077  86.3998 327.2086 0002160  84.1226 276.0216 14.34216100318925
IRIDIUM 153             
1 43078U 17083J   24025.30378778  .00000152  00000+0  47134-4 0  9997
2 43078  86.3977 295.6808 0002360  75.6626 284.4832 14.34216979320029
IRIDIUM 131             
1 43079U 17083K   24025.33892477  .00000260  00000+0  85687-4 0  9993
2 43079  86.4003 327.3413 0002145  86.8093 273.3348 14.34218482318857
